CCSDS_OMM_VERS,COMMENT,CREATION_DATE,ORIGINATOR,OBJECT_NAME,OBJECT_ID,CENTER_NAME,REF_FRAME,TIME_SYSTEM,MEAN_ELEMENT_THEORY,EPOCH,MEAN_MOTION,ECCENTRICITY,INCLINATION,RA_OF_ASC_NODE,ARG_OF_PERICENTER,MEAN_ANOMALY,EPHEMERIS_TYPE,CLASSIFICATION_TYPE,NORAD_CAT_ID,ELEMENT_SET_NO,REV_AT_EPOCH,BSTAR,MEAN_MOTION_DOT,MEAN_MOTION_DDOT,SEMIMAJOR_AXIS,PERIOD,APOAPSIS,PERIAPSIS,OBJECT_TYPE,RCS_SIZE,COUNTRY_CODE,LAUNCH_DATE,SITE,DECAY_DATE,FILE,GP_ID,TLE_LINE0,TLE_LINE1,TLE_LINE2
2,GENERATED VIA SPACE-TRACK.ORG API,2019-06-28T06:20:16,18 SPCS,GALILEO-FM3,2012-055A,EARTH,TEME,UTC,SGP4,2019-06-27T12:35:20.698368,1.70473888,0.0005276,54.9356,171.5848,267.8104,92.1395,0,U,38857,999,4174,0.0,9.3e-07,0,29600.333,844.704,23237.815,23206.58,PAYLOAD,LARGE,ESA,2012-10-12,FRGUI,,2501523,134158288,0 GALILEO-FM3,1 38857U 12055A   19178.52454512  .00000093  00000-0  00000+0 0  9999,2 38857  54.9356 171.5848 0005276 267.8104  92.1395  1.70473888 41748
2,GENERATED VIA SPACE-TRACK.ORG API,2019-06-30T03:47:08,18 SPCS,GALILEO-FM3,2012-055A,EARTH,TEME,UTC,SGP4,2019-06-28T16:44:42.080064,1.70473845,0.0005266,54.9357,171.5525,268.0098,91.9384,0,U,38857,999,4176,0.0,9.5e-07,0,29600.337,844.704,23237.79,23206.615,PAYLOAD,LARGE,ESA,2012-10-12,FRGUI,,2502643,134251771,0 GALILEO-FM3,1 38857U 12055A   19179.69770926 +.00000095 +00000-0 +00000-0 0  9991,2 38857 054.9357 171.5525 0005266 268.0098 091.9384 01.70473845041765
2,GENERATED VIA SPACE-TRACK.ORG API,2019-06-30T14:20:17,18 SPCS,GALILEO-FM3,2012-055A,EARTH,TEME,UTC,SGP4,2019-06-29T20:54:02.998656,1.70473819,0.0005263,54.9359,171.5202,268.122,91.8213,0,U,38857,999,4178,0.0,9.4e-07,0,29600.341,844.704,23237.784,23206.627,PAYLOAD,LARGE,ESA,2012-10-12,FRGUI,,2502859,134260361,0 GALILEO-FM3,1 38857U 12055A   19180.87086804  .00000094  00000-0  00000+0 0  9996,2 38857  54.9359 171.5202 0005263 268.1220  91.8213  1.70473819 41787
2,GENERATED VIA SPACE-TRACK.ORG API,2019-07-02T22:30:15,18 SPCS,GALILEO-FM3,2012-055A,EARTH,TEME,UTC,SGP4,2019-07-02T05:12:43.932096,1.70473758,0.0005235,54.9362,171.4555,268.4018,91.5252,0,U,38857,999,4182,0.0,8.1e-07,0,29600.348,844.704,23237.708,23206.717,PAYLOAD,LARGE,ESA,2012-10-12,FRGUI,,2504915,134396474,0 GALILEO-FM3,1 38857U 12055A   19183.21717514  .00000081  00000-0  00000+0 0  9992,2 38857  54.9362 171.4555 0005235 268.4018  91.5252  1.70473758 41825
2,GENERATED VIA SPACE-TRACK.ORG API,2019-07-05T14:20:17,18 SPCS,GALILEO-FM3,2012-055A,EARTH,TEME,UTC,SGP4,2019-07-05T03:36:05.994432,1.70473706,0.0005165,54.9364,171.3748,268.8929,91.0194,0,U,38857,999,4187,0.0,6.4e-07,0,29600.354,844.705,23237.507,23206.93,PAYLOAD,LARGE,ESA,2012-10-12,FRGUI,,2507142,134558978,0 GALILEO-FM3,1 38857U 12055A   19186.15006938  .00000064  00000-0  00000+0 0  9990,2 38857  54.9364 171.3748 0005165 268.8929  91.0194  1.70473706 41875
2,GENERATED VIA SPACE-TRACK.ORG API,2019-07-07T22:20:18,18 SPCS,GALILEO-FM3,2012-055A,EARTH,TEME,UTC,SGP4,2019-07-07T11:54:49.656384,1.70473701,0.0005135,54.9367,171.3102,269.0808,90.8342,0,U,38857,999,4191,0.0,6.4e-07,0,29600.354,844.705,23237.419,23207.019,PAYLOAD,LARGE,ESA,2012-10-12,FRGUI,,2509139,134716178,0 GALILEO-FM3,1 38857U 12055A   19188.49640806  .00000064  00000-0  00000+0 0  9997,2 38857  54.9367 171.3102 0005135 269.0808  90.8342  1.70473701 41910
2,GENERATED VIA SPACE-TRACK.ORG API,2019-07-10T14:30:17,18 SPCS,GALILEO-FM3,2012-055A,EARTH,TEME,UTC,SGP4,2019-07-09T20:13:33.747744,1.70473724,0.0005099,54.9371,171.2456,269.3541,90.5667,0,U,38857,999,4195,0.0,6.3e-07,0,29600.352,844.704,23237.31,23207.123,PAYLOAD,LARGE,ESA,2012-10-12,FRGUI,,2510739,134864473,0 GALILEO-FM3,1 38857U 12055A   19190.84275171  .00000063  00000-0  00000+0 0  9997,2 38857  54.9371 171.2456 0005099 269.3541  90.5667  1.70473724 41958
2,GENERATED VIA SPACE-TRACK.ORG API,2019-07-12T22:50:18,18 SPCS,GALILEO-FM3,2012-055A,EARTH,TEME,UTC,SGP4,2019-07-12T04:32:16.373760,1.70473766,0.0005061,54.9375,171.1809,269.5103,90.4059,0,U,38857,999,4199,0.0,4.9e-07,0,29600.347,844.704,23237.192,23207.231,PAYLOAD,LARGE,ESA,2012-10-12,FRGUI,,2511356,134915463,0 GALILEO-FM3,1 38857U 12055A   19193.18907840  .00000049  00000-0  00000+0 0  9996,2 38857  54.9375 171.1809 0005061 269.5103  90.4059  1.70473766 41992
2,GENERATED VIA SPACE-TRACK.ORG API,2019-07-14T03:53:07,18 SPCS,GALILEO-FM3,2012-055A,EARTH,TEME,UTC,SGP4,2019-07-13T08:41:37.206816,1.70473792,0.0005007,54.938,171.1487,269.679,90.2314,0,U,38857,999,4201,0.0,3.8e-07,0,29600.344,844.704,23237.03,23207.388,PAYLOAD,LARGE,ESA,2012-10-12,FRGUI,,2512179,135005769,0 GALILEO-FM3,1 38857U 12055A   19194.36223619 +.00000038 +00000-0 +00000-0 0  9991,2 38857 054.9380 171.1487 0005007 269.6790 090.2314 01.70473792042018
2,GENERATED VIA SPACE-TRACK.ORG API,2019-07-14T22:20:17,18 SPCS,GALILEO-FM3,2012-055A,EARTH,TEME,UTC,SGP4,2019-07-14T12:50:57.880032,1.70473822,0.0004976,54.9381,171.1164,269.7268,90.1767,0,U,38857,999,4203,0.0,2.9e-07,0,29600.34,844.704,23236.934,23207.476,PAYLOAD,LARGE,ESA,2012-10-12,FRGUI,,2512578,135056143,0 GALILEO-FM3,1 38857U 12055A   19195.53539213  .00000029  00000-0  00000+0 0  9990,2 38857  54.9381 171.1164 0004976 269.7268  90.1767  1.70473822 42033
2,GENERATED VIA SPACE-TRACK.ORG API,2019-07-18T04:57:28,18 SPCS,GALILEO-FM3,2012-055A,EARTH,TEME,UTC,SGP4,2019-07-17T11:14:20.246496,1.70473906,0.0004977,54.9377,171.0356,269.4898,90.4023,0,U,38857,999,4208,0.0,2.3e-07,0,29600.33,844.704,23236.928,23207.463,PAYLOAD,LARGE,ESA,2012-10-12,FRGUI,,2514387,135242569,0 GALILEO-FM3,1 38857U 12055A   19198.46828989 +.00000023 +00000-0 +00000-0 0  9991,2 38857 054.9377 171.0356 0004977 269.4898 090.4023 01.70473906042083
2,GENERATED VIA SPACE-TRACK.ORG API,2019-07-17T14:30:17,18 SPCS,GALILEO-FM3,2012-055A,EARTH,TEME,UTC,SGP4,2019-07-17T11:14:20.249952,1.70473899,0.0004978,54.9374,171.0356,269.5012,90.391,0,U,38857,999,4208,0.0,2.3e-07,0,29600.331,844.704,23236.931,23207.461,PAYLOAD,LARGE,ESA,2012-10-12,FRGUI,,2513999,135200550,0 GALILEO-FM3,1 38857U 12055A   19198.46828993  .00000023  00000-0  00000+0 0  9995,2 38857  54.9374 171.0356 0004978 269.5012  90.3910  1.70473899 42085
2,GENERATED VIA SPACE-TRACK.ORG API,2019-07-20T04:45:34,18 SPCS,GALILEO-FM3,2012-055A,EARTH,TEME,UTC,SGP4,2019-07-19T19:33:03.932640,1.70473937,0.0004944,54.9382,170.971,269.556,90.3397,0,U,38857,999,4212,0.0,3.3e-07,0,29600.327,844.703,23236.826,23207.557,PAYLOAD,LARGE,ESA,2012-10-12,FRGUI,,2515527,135361135,0 GALILEO-FM3,1 38857U 12055A   19200.81462885 +.00000033 +00000-0 +00000-0 0  9994,2 38857 054.9382 170.9710 0004944 269.5560 090.3397 01.70473937042124
2,GENERATED VIA SPACE-TRACK.ORG API,2019-07-20T06:20:15,18 SPCS,GALILEO-FM3,2012-055A,EARTH,TEME,UTC,SGP4,2019-07-19T19:33:03.932640,1.70473937,0.0004944,54.9382,170.971,269.556,90.3397,0,U,38857,999,4212,0.0,3.3e-07,0,29600.327,844.703,23236.826,23207.557,PAYLOAD,LARGE,ESA,2012-10-12,FRGUI,,2515571,135366314,0 GALILEO-FM3,1 38857U 12055A   19200.81462885  .00000033  00000-0  00000+0 0  9993,2 38857  54.9382 170.9710 0004944 269.5560  90.3397  1.70473937 42124
2,GENERATED VIA SPACE-TRACK.ORG API,2019-07-22T22:30:15,18 SPCS,GALILEO-FM3,2012-055A,EARTH,TEME,UTC,SGP4,2019-07-22T17:56:29.950368,1.70473929,0.0004864,54.9386,170.8903,269.7505,90.1596,0,U,38857,999,4217,0.0,5e-07,0,29600.328,844.703,23236.59,23207.795,PAYLOAD,LARGE,ESA,2012-10-12,FRGUI,,2517073,135511270,0 GALILEO-FM3,1 38857U 12055A   19203.74756887  .00000050  00000-0  00000+0 0  9995,2 38857  54.9386 170.8903 0004864 269.7505  90.1596  1.70473929 42178
2,GENERATED VIA SPACE-TRACK.ORG API,2019-07-25T14:47:47,18 SPCS,GALILEO-FM3,2012-055A,EARTH,TEME,UTC,SGP4,2019-07-23T22:05:52.285056,1.70473897,0.0004822,54.9387,170.858,269.8598,90.0554,0,U,38857,999,4219,0.0,5.5e-07,0,29600.331,844.704,23236.47,23207.923,PAYLOAD,LARGE,ESA,2012-10-12,FRGUI,,2518527,135651729,0 GALILEO-FM3,1 38857U 12055A   19204.92074404 +.00000055 +00000-0 +00000-0 0  9990,2 38857 054.9387 170.8580 0004822 269.8598 090.0554 01.70473897042196
2,GENERATED VIA SPACE-TRACK.ORG API,2019-07-25T11:00:15,18 SPCS,GALILEO-FM3,2012-055A,EARTH,TEME,UTC,SGP4,2019-07-25T02:15:14.237856,1.7047388,0.0004805,54.9387,170.8258,270.0376,89.8802,0,U,38857,999,4221,0.0,5.9e-07,0,29600.333,844.704,23236.421,23207.975,PAYLOAD,LARGE,ESA,2012-10-12,FRGUI,,2518440,135635349,0 GALILEO-FM3,1 38857U 12055A   19206.09391479  .00000059  00000-0  00000+0 0  9997,2 38857  54.9387 170.8258 0004805 270.0376  89.8802  1.70473880 42214
2,GENERATED VIA SPACE-TRACK.ORG API,2019-07-28T03:41:22,18 SPCS,GALILEO-FM3,2012-055A,EARTH,TEME,UTC,SGP4,2019-07-26T20:29:16.433088,1.70473831,0.0004768,54.9388,170.7773,270.2341,89.6821,0,U,38857,999,4224,0.0,5.8e-07,0,29600.339,844.704,23236.318,23208.091,PAYLOAD,LARGE,ESA,2012-10-12,FRGUI,,2519408,135805132,0 GALILEO-FM3,1 38857U 12055A   19207.85366242 +.00000058 +00000-0 +00000-0 0  9992,2 38857 054.9388 170.7773 0004768 270.2341 089.6821 01.70473831042246
2,GENERATED VIA SPACE-TRACK.ORG API,2019-07-28T14:30:14,18 SPCS,GALILEO-FM3,2012-055A,EARTH,TEME,UTC,SGP4,2019-07-28T00:38:37.400064,1.70473798,0.000474,54.939,170.745,270.33,89.5816,0,U,38857,999,4226,0.0,5.4e-07,0,29600.343,844.704,23236.239,23208.177,PAYLOAD,LARGE,ESA,2012-10-12,FRGUI,,2519525,135812106,0 GALILEO-FM3,1 38857U 12055A   19209.02682176  .00000054  00000-0  00000+0 0  9995,2 38857  54.9390 170.7450 0004740 270.3300  89.5816  1.70473798 42264
2,GENERATED VIA SPACE-TRACK.ORG API,2019-07-30T04:47:47,18 SPCS,GALILEO-FM3,2012-055A,EARTH,TEME,UTC,SGP4,2019-07-29T18:52:38.518752,1.70473759,0.0004688,54.9392,170.6965,270.5187,89.3836,0,U,38857,999,4229,0.0,4.2e-07,0,29600.347,844.704,23236.089,23208.336,PAYLOAD,LARGE,ESA,2012-10-12,FRGUI,,2520044,135914571,0 GALILEO-FM3,1 38857U 12055A   19210.78655693 +.00000042 +00000-0 +00000-0 0  9992,2 38857 054.9392 170.6965 0004688 270.5187 089.3836 01.70473759042292
